[{"OBJECT_NAME":"SDA_1671","OBJECT_ID":"2025-230H","EPOCH":"2026-03-09T17:44:20.295456","MEAN_MOTION":13.85388686,"ECCENTRICITY":0.00046746,"INCLINATION":81.3008,"RA_OF_ASC_NODE":303.8297,"ARG_OF_PERICENTER":111.686,"MEAN_ANOMALY":248.4795,"EPHEMERIS_TYPE":0,"CLASSIFICATION_TYPE":"U","NORAD_CAT_ID":65981,"ELEMENT_SET_NO":999,"REV_AT_EPOCH":2005,"BSTAR":0.00023629654,"MEAN_MOTION_DOT":2.81e-6,"MEAN_MOTION_DDOT":0},{"OBJECT_NAME":"COSMOS 2173","OBJECT_ID":"1991-081A","EPOCH":"2026-03-09T22:26:36.737952","MEAN_MOTION":13.75754389,"ECCENTRICITY":0.00479763,"INCLINATION":82.952,"RA_OF_ASC_NODE":244.2506,"ARG_OF_PERICENTER":258.8044,"MEAN_ANOMALY":210.3782,"EPHEMERIS_TYPE":0,"CLASSIFICATION_TYPE":"U","NORAD_CAT_ID":21796,"ELEMENT_SET_NO":999,"REV_AT_EPOCH":72075,"BSTAR":6.6382687e-5,"MEAN_MOTION_DOT":7.9e-7,"MEAN_MOTION_DDOT":0}]
